[{"OBJECT_NAME":"ONEWEB-0158","OBJECT_ID":"2021-025N","EPOCH":"2025-10-24T17:44:57.230592","MEAN_MOTION":13.1346963,"ECCENTRICITY":0.0001778,"INCLINATION":87.9045,"RA_OF_ASC_NODE":6.9986,"ARG_OF_PERICENTER":111.2842,"MEAN_ANOMALY":248.8477,"EPHEMERIS_TYPE":0,"CLASSIFICATION_TYPE":"U","NORAD_CAT_ID":48054,"ELEMENT_SET_NO":999,"REV_AT_EPOCH":22272,"BSTAR":0.00010044,"MEAN_MOTION_DOT":4.9e-7,"MEAN_MOTION_DDOT":0},{"OBJECT_NAME":"ONEWEB-0157","OBJECT_ID":"2021-025P","EPOCH":"2025-10-24T14:42:07.735392","MEAN_MOTION":13.13470336,"ECCENTRICITY":0.0002181,"INCLINATION":87.904,"RA_OF_ASC_NODE":7.0307,"ARG_OF_PERICENTER":94.2343,"MEAN_ANOMALY":265.9036,"EPHEMERIS_TYPE":0,"CLASSIFICATION_TYPE":"U","NORAD_CAT_ID":48055,"ELEMENT_SET_NO":999,"REV_AT_EPOCH":22264,"BSTAR":-0.00070847,"MEAN_MOTION_DOT":-2.46e-6,"MEAN_MOTION_DDOT":0},{"OBJECT_NAME":"ONEWEB-0162","OBJECT_ID":"2021-025Q","EPOCH":"2025-10-24T17:47:11.783040","MEAN_MOTION":13.13469917,"ECCENTRICITY":0.000183,"INCLINATION":87.9046,"RA_OF_ASC_NODE":7.0059,"ARG_OF_PERICENTER":98.9014,"MEAN_ANOMALY":261.2322,"EPHEMERIS_TYPE":0,"CLASSIFICATION_TYPE":"U","NORAD_CAT_ID":48056,"ELEMENT_SET_NO":999,"REV_AT_EPOCH":22263,"BSTAR":0.00022974,"MEAN_MOTION_DOT":9.7e-7,"MEAN_MOTION_DDOT":0},{"OBJECT_NAME":"ONEWEB-0155","OBJECT_ID":"2021-025R","EPOCH":"2025-10-24T10:38:20.561856","MEAN_MOTION":13.13467002,"ECCENTRICITY":0.0002051,"INCLINATION":87.9046,"RA_OF_ASC_NODE":7.0712,"ARG_OF_PERICENTER":101.8671,"MEAN_ANOMALY":258.2688,"EPHEMERIS_TYPE":0,"CLASSIFICATION_TYPE":"U","NORAD_CAT_ID":48057,"ELEMENT_SET_NO":999,"REV_AT_EPOCH":22273,"BSTAR":-7.1282e-5,"MEAN_MOTION_DOT":-1.3e-7,"MEAN_MOTION_DDOT":0},{"OBJECT_NAME":"ONEWEB-0149","OBJECT_ID":"2021-025S","EPOCH":"2025-10-24T16:39:07.557408","MEAN_MOTION":13.13470866,"ECCENTRICITY":0.0001748,"INCLINATION":87.9041,"RA_OF_ASC_NODE":7.0155,"ARG_OF_PERICENTER":94.1779,"MEAN_ANOMALY":265.955,"EPHEMERIS_TYPE":0,"CLASSIFICATION_TYPE":"U","NORAD_CAT_ID":48058,"ELEMENT_SET_NO":999,"REV_AT_EPOCH":22257,"BSTAR":-0.00088327,"MEAN_MOTION_DOT":-3.1e-6,"MEAN_MOTION_DDOT":0},{"OBJECT_NAME":"ONEWEB-0148","OBJECT_ID":"2021-025T","EPOCH":"2025-10-24T17:35:12.292224","MEAN_MOTION":13.13469031,"ECCENTRICITY":0.0001756,"INCLINATION":87.9037,"RA_OF_ASC_NODE":7.0309,"ARG_OF_PERICENTER":78.8886,"MEAN_ANOMALY":281.244,"EPHEMERIS_TYPE":0,"CLASSIFICATION_TYPE":"U","NORAD_CAT_ID":48059,"ELEMENT_SET_NO":999,"REV_AT_EPOCH":22270,"BSTAR":0.00096963,"MEAN_MOTION_DOT":3.67e-6,"MEAN_MOTION_DDOT":0},{"OBJECT_NAME":"ONEWEB-0160","OBJECT_ID":"2021-025U","EPOCH":"2025-10-24T17:59:33.743040","MEAN_MOTION":13.13470472,"ECCENTRICITY":0.0001527,"INCLINATION":87.903,"RA_OF_ASC_NODE":7.0231,"ARG_OF_PERICENTER":126.662,"MEAN_ANOMALY":233.4649,"EPHEMERIS_TYPE":0,"CLASSIFICATION_TYPE":"U","NORAD_CAT_ID":48060,"ELEMENT_SET_NO":999,"REV_AT_EPOCH":22265,"BSTAR":-0.00052769,"MEAN_MOTION_DOT":-1.8e-6,"MEAN_MOTION_DDOT":0},{"OBJECT_NAME":"ONEWEB-0163","OBJECT_ID":"2021-025V","EPOCH":"2025-10-24T17:37:38.131104","MEAN_MOTION":13.13467803,"ECCENTRICITY":0.0002105,"INCLINATION":87.9044,"RA_OF_ASC_NODE":7.0101,"ARG_OF_PERICENTER":97.2494,"MEAN_ANOMALY":262.8875,"EPHEMERIS_TYPE":0,"CLASSIFICATION_TYPE":"U","NORAD_CAT_ID":48061,"ELEMENT_SET_NO":999,"REV_AT_EPOCH":22277,"BSTAR":0.00050975,"MEAN_MOTION_DOT":1.99e-6,"MEAN_MOTION_DDOT":0},{"OBJECT_NAME":"ONEWEB-0159","OBJECT_ID":"2021-025W","EPOCH":"2025-10-24T17:25:26.519232","MEAN_MOTION":13.13471299,"ECCENTRICITY":0.0001934,"INCLINATION":87.9044,"RA_OF_ASC_NODE":6.9949,"ARG_OF_PERICENTER":93.7642,"MEAN_ANOMALY":266.3708,"EPHEMERIS_TYPE":0,"CLASSIFICATION_TYPE":"U","NORAD_CAT_ID":48062,"ELEMENT_SET_NO":999,"REV_AT_EPOCH":22269,"BSTAR":0.00096788,"MEAN_MOTION_DOT":3.66e-6,"MEAN_MOTION_DDOT":0},{"OBJECT_NAME":"ONEWEB-0164","OBJECT_ID":"2021-025X","EPOCH":"2025-10-24T16:58:37.784064","MEAN_MOTION":13.13471362,"ECCENTRICITY":0.0001805,"INCLINATION":87.904,"RA_OF_ASC_NODE":7.0065,"ARG_OF_PERICENTER":102.9509,"MEAN_ANOMALY":257.1822,"EPHEMERIS_TYPE":0,"CLASSIFICATION_TYPE":"U","NORAD_CAT_ID":48063,"ELEMENT_SET_NO":999,"REV_AT_EPOCH":22267,"BSTAR":1.8139e-5,"MEAN_MOTION_DOT":1.9e-7,"MEAN_MOTION_DDOT":0},{"OBJECT_NAME":"ONEWEB-0167","OBJECT_ID":"2021-025Y","EPOCH":"2025-10-24T17:38:51.261792","MEAN_MOTION":13.13467725,"ECCENTRICITY":0.0002547,"INCLINATION":87.9036,"RA_OF_ASC_NODE":7.0325,"ARG_OF_PERICENTER":105.2801,"MEAN_ANOMALY":254.861,"EPHEMERIS_TYPE":0,"CLASSIFICATION_TYPE":"U","NORAD_CAT_ID":48064,"ELEMENT_SET_NO":999,"REV_AT_EPOCH":22266,"BSTAR":0.00052087,"MEAN_MOTION_DOT":2.03e-6,"MEAN_MOTION_DDOT":0},{"OBJECT_NAME":"ONEWEB-0166","OBJECT_ID":"2021-025Z","EPOCH":"2025-10-24T18:11:44.680128","MEAN_MOTION":13.1346791,"ECCENTRICITY":0.0001846,"INCLINATION":87.9039,"RA_OF_ASC_NODE":6.9797,"ARG_OF_PERICENTER":95.3017,"MEAN_ANOMALY":264.8323,"EPHEMERIS_TYPE":0,"CLASSIFICATION_TYPE":"U","NORAD_CAT_ID":48065,"ELEMENT_SET_NO":999,"REV_AT_EPOCH":22274,"BSTAR":-0.00072619,"MEAN_MOTION_DOT":-2.52e-6,"MEAN_MOTION_DDOT":0},{"OBJECT_NAME":"ONEWEB-0151","OBJECT_ID":"2021-025AA","EPOCH":"2025-10-24T18:14:11.638752","MEAN_MOTION":13.13470173,"ECCENTRICITY":0.0002984,"INCLINATION":87.9048,"RA_OF_ASC_NODE":7.0059,"ARG_OF_PERICENTER":99.4654,"MEAN_ANOMALY":260.6812,"EPHEMERIS_TYPE":0,"CLASSIFICATION_TYPE":"U","NORAD_CAT_ID":48066,"ELEMENT_SET_NO":999,"REV_AT_EPOCH":22268,"BSTAR":-0.0012654,"MEAN_MOTION_DOT":-4.49e-6,"MEAN_MOTION_DDOT":0},{"OBJECT_NAME":"ONEWEB-0170","OBJECT_ID":"2021-025AB","EPOCH":"2025-10-24T16:36:40.394016","MEAN_MOTION":13.13467886,"ECCENTRICITY":0.0001935,"INCLINATION":87.9039,"RA_OF_ASC_NODE":7.0259,"ARG_OF_PERICENTER":115.0893,"MEAN_ANOMALY":245.0437,"EPHEMERIS_TYPE":0,"CLASSIFICATION_TYPE":"U","NORAD_CAT_ID":48067,"ELEMENT_SET_NO":999,"REV_AT_EPOCH":22263,"BSTAR":-0.00072177,"MEAN_MOTION_DOT":-2.51e-6,"MEAN_MOTION_DDOT":0},{"OBJECT_NAME":"ONEWEB-0168","OBJECT_ID":"2021-025AC","EPOCH":"2025-10-24T18:04:26.357376","MEAN_MOTION":13.13467336,"ECCENTRICITY":0.0001969,"INCLINATION":87.9048,"RA_OF_ASC_NODE":6.9959,"ARG_OF_PERICENTER":96.2287,"MEAN_ANOMALY":263.9066,"EPHEMERIS_TYPE":0,"CLASSIFICATION_TYPE":"U","NORAD_CAT_ID":48068,"ELEMENT_SET_NO":999,"REV_AT_EPOCH":22265,"BSTAR":-0.00078535,"MEAN_MOTION_DOT":-2.74e-6,"MEAN_MOTION_DDOT":0},{"OBJECT_NAME":"ONEWEB-0173","OBJECT_ID":"2021-025AD","EPOCH":"2025-10-24T17:52:15.341664","MEAN_MOTION":13.13470459,"ECCENTRICITY":0.0002278,"INCLINATION":87.9046,"RA_OF_ASC_NODE":7.0052,"ARG_OF_PERICENTER":98.4778,"MEAN_ANOMALY":261.661,"EPHEMERIS_TYPE":0,"CLASSIFICATION_TYPE":"U","NORAD_CAT_ID":48069,"ELEMENT_SET_NO":999,"REV_AT_EPOCH":22289,"BSTAR":-0.00018806,"MEAN_MOTION_DOT":-5.6e-7,"MEAN_MOTION_DDOT":0},{"OBJECT_NAME":"ONEWEB-0171","OBJECT_ID":"2021-025AE","EPOCH":"2025-10-24T16:56:12.230304","MEAN_MOTION":13.13470635,"ECCENTRICITY":0.0001918,"INCLINATION":87.9025,"RA_OF_ASC_NODE":7.0439,"ARG_OF_PERICENTER":102.4593,"MEAN_ANOMALY":257.675,"EPHEMERIS_TYPE":0,"CLASSIFICATION_TYPE":"U","NORAD_CAT_ID":48070,"ELEMENT_SET_NO":999,"REV_AT_EPOCH":22270,"BSTAR":1.5983e-5,"MEAN_MOTION_DOT":1.9e-7,"MEAN_MOTION_DDOT":0},{"OBJECT_NAME":"ONEWEB-0172","OBJECT_ID":"2021-025AF","EPOCH":"2025-10-24T10:57:50.278752","MEAN_MOTION":13.13468235,"ECCENTRICITY":0.0002022,"INCLINATION":87.905,"RA_OF_ASC_NODE":7.0674,"ARG_OF_PERICENTER":101.6115,"MEAN_ANOMALY":258.5241,"EPHEMERIS_TYPE":0,"CLASSIFICATION_TYPE":"U","NORAD_CAT_ID":48071,"ELEMENT_SET_NO":999,"REV_AT_EPOCH":22356,"BSTAR":-0.0010397,"MEAN_MOTION_DOT":-3.67e-6,"MEAN_MOTION_DDOT":0},{"OBJECT_NAME":"ONEWEB-0174","OBJECT_ID":"2021-025AG","EPOCH":"2025-10-24T17:49:49.134720","MEAN_MOTION":13.13467168,"ECCENTRICITY":0.0001852,"INCLINATION":87.9036,"RA_OF_ASC_NODE":7.0193,"ARG_OF_PERICENTER":95.181,"MEAN_ANOMALY":264.9531,"EPHEMERIS_TYPE":0,"CLASSIFICATION_TYPE":"U","NORAD_CAT_ID":48072,"ELEMENT_SET_NO":999,"REV_AT_EPOCH":22292,"BSTAR":2.0757e-5,"MEAN_MOTION_DOT":2.0e-7,"MEAN_MOTION_DDOT":0},{"OBJECT_NAME":"ONEWEB-0175","OBJECT_ID":"2021-025AH","EPOCH":"2025-10-24T16:44:00.405024","MEAN_MOTION":13.1347052,"ECCENTRICITY":0.000203,"INCLINATION":87.9042,"RA_OF_ASC_NODE":6.9946,"ARG_OF_PERICENTER":108.9242,"MEAN_ANOMALY":251.2107,"EPHEMERIS_TYPE":0,"CLASSIFICATION_TYPE":"U","NORAD_CAT_ID":48073,"ELEMENT_SET_NO":999,"REV_AT_EPOCH":22257,"BSTAR":-0.00062573,"MEAN_MOTION_DOT":-2.16e-6,"MEAN_MOTION_DDOT":0},{"OBJECT_NAME":"ONEWEB-0177","OBJECT_ID":"2021-025AJ","EPOCH":"2025-10-24T17:01:04.073088","MEAN_MOTION":13.13471641,"ECCENTRICITY":0.0001926,"INCLINATION":87.9041,"RA_OF_ASC_NODE":7.0105,"ARG_OF_PERICENTER":95.685,"MEAN_ANOMALY":264.4499,"EPHEMERIS_TYPE":0,"CLASSIFICATION_TYPE":"U","NORAD_CAT_ID":48074,"ELEMENT_SET_NO":999,"REV_AT_EPOCH":22276,"BSTAR":0.00026291,"MEAN_MOTION_DOT":1.09e-6,"MEAN_MOTION_DDOT":0},{"OBJECT_NAME":"ONEWEB-0178","OBJECT_ID":"2021-025AK","EPOCH":"2025-10-24T17:28:05.224800","MEAN_MOTION":13.13468062,"ECCENTRICITY":0.0002137,"INCLINATION":87.9045,"RA_OF_ASC_NODE":7.0524,"ARG_OF_PERICENTER":102.5539,"MEAN_ANOMALY":257.5829,"EPHEMERIS_TYPE":0,"CLASSIFICATION_TYPE":"U","NORAD_CAT_ID":48075,"ELEMENT_SET_NO":999,"REV_AT_EPOCH":22281,"BSTAR":0.00075555,"MEAN_MOTION_DOT":2.89e-6,"MEAN_MOTION_DDOT":0},{"OBJECT_NAME":"ONEWEB-0108","OBJECT_ID":"2021-025AL","EPOCH":"2025-10-24T14:39:40.419072","MEAN_MOTION":13.13471721,"ECCENTRICITY":0.0001621,"INCLINATION":87.9041,"RA_OF_ASC_NODE":7.0205,"ARG_OF_PERICENTER":98.6891,"MEAN_ANOMALY":261.4422,"EPHEMERIS_TYPE":0,"CLASSIFICATION_TYPE":"U","NORAD_CAT_ID":48076,"ELEMENT_SET_NO":999,"REV_AT_EPOCH":22272,"BSTAR":-0.00051548,"MEAN_MOTION_DOT":-1.76e-6,"MEAN_MOTION_DDOT":0},{"OBJECT_NAME":"ONEWEB-0169","OBJECT_ID":"2021-025AM","EPOCH":"2025-10-24T17:15:41.676768","MEAN_MOTION":13.13468355,"ECCENTRICITY":0.0001624,"INCLINATION":87.9038,"RA_OF_ASC_NODE":7.0221,"ARG_OF_PERICENTER":97.8834,"MEAN_ANOMALY":262.2479,"EPHEMERIS_TYPE":0,"CLASSIFICATION_TYPE":"U","NORAD_CAT_ID":48077,"ELEMENT_SET_NO":999,"REV_AT_EPOCH":22139,"BSTAR":0.00068496,"MEAN_MOTION_DOT":2.63e-6,"MEAN_MOTION_DDOT":0}]
